{
    "links": {
        "self": "http://www.neowsapp.com/rest/v1/neo/3872644?api_key=iIulBulltgU6a56xZRHN4H3l9WmuAYTsLGpBGhQ2"
    },
    "id": "3872644",
    "neo_reference_id": "3872644",
    "name": "(2019 SQ8)",
    "designation": "2019 SQ8",
    "nasa_jpl_url": "http://ssd.jpl.nasa.gov/sbdb.cgi?sstr=3872644",
    "absolute_magnitude_h": 23.1,
    "estimated_diameter": {
        "kilometers": {
            "estimated_diameter_min": 0.063760979,
            "estimated_diameter_max": 0.1425738833
        },
        "meters": {
            "estimated_diameter_min": 63.7609789875,
            "estimated_diameter_max": 142.5738833281
        },
        "miles": {
            "estimated_diameter_min": 0.0396192233,
            "estimated_diameter_max": 0.0885912765
        },
        "feet": {
            "estimated_diameter_min": 209.1895703015,
            "estimated_diameter_max": 467.7620993781
        }
    },
    "is_potentially_hazardous_asteroid": false,
    "close_approach_data": [
        {
            "close_approach_date": "2019-09-02",
            "close_approach_date_full": "2019-Sep-02 08:51",
            "epoch_date_close_approach": 1567414260000,
            "relative_velocity": {
                "kilometers_per_second": "15.9495788588",
                "kilometers_per_hour": "57418.483891549",
                "miles_per_hour": "35677.6129491683"
            },
            "miss_distance": {
                "astronomical": "0.0617287806",
                "lunar": "24.0124956534",
                "kilometers": "9234494.095457322",
                "miles": "5738048.5540701636"
            },
            "orbiting_body": "Earth"
        }
    ],
    "orbital_data": {
        "orbit_id": "6",
        "orbit_determination_date": "2019-10-08 05:58:12",
        "first_observation_date": "2019-09-29",
        "last_observation_date": "2019-10-08",
        "data_arc_in_days": 9,
        "observations_used": 29,
        "orbit_uncertainty": "9",
        "minimum_orbit_intersection": ".00956417",
        "jupiter_tisserand_invariant": "3.226",
        "epoch_osculation": "2458757.5",
        "eccentricity": ".672635839370278",
        "semi_major_axis": "2.324634342005133",
        "inclination": "2.918107224073974",
        "ascending_node_longitude": "39.95653990699011",
        "orbital_period": "1294.58449408809",
        "perihelion_distance": ".7610019701415364",
        "perihelion_argument": "235.925903064964",
        "aphelion_distance": "3.88826671386873",
        "perihelion_time": "2458687.273934916033",
        "mean_anomaly": "19.52856962653211",
        "mean_motion": ".2780815015504919",
        "equinox": "J2000",
        "orbit_class": {
            "orbit_class_type": "APO",
            "orbit_class_description": "Near-Earth asteroid orbits which cross the Earth’s orbit similar to that of 1862 Apollo",
            "orbit_class_range": "a (semi-major axis) > 1.0 AU; q (perihelion) < 1.017 AU"
        }
    },
    "is_sentry_object": false
}